{"type": "FeatureCollection", "features": [ {"type": "Feature", "properties": {"norad_id": 33153, "name": "INTELSAT 25 (IS-25)", "group": "intelsat", "lat": 2.1841206869756493, "lon": 175.58265566862138, "alt_km": 35783.54535749862, "timestamp": "2025-12-03T08:58:45.666799+00:00", "meta": {"OBJECT_NAME": "INTELSAT 25 (IS-25)", "OBJECT_ID": "2008-034A", "EPOCH": "2025-12-03T03:19:57.878976", "MEAN_MOTION": 1.00271477, "ECCENTRICITY": 0.0005337, "INCLINATION": 2.201, "RA_OF_ASC_NODE": 82.757, "ARG_OF_PERICENTER": 176.9708, "MEAN_ANOMALY": 191.0049, "EPHEMERIS_TYPE": 0, "CLASSIFICATION_TYPE": "U", "NORAD_CAT_ID": 33153, "ELEMENT_SET_NO": 999, "REV_AT_EPOCH": 6373, "BSTAR": 0, "MEAN_MOTION_DOT": -2.05e-06, "MEAN_MOTION_DDOT": 0}, "tle": {"line1": "1 33153U 08034A   25337.13886434 -.00000205  00000+0  00000+0 0  9993", "line2": "2 33153   2.2010  82.7570 0005337 176.9708 191.0049  1.00271477 63739"}}, "geometry": {"type": "Point", "coordinates": [175.58265566862138, 2.1841206869756493]}}, {"type": "Feature", "properties": {"norad_id": 33376, "name": "GALAXY 19 (G-19)", "group": "intelsat", "lat": 0.02543222571447696, "lon": 110.11867227344854, "alt_km": 35799.37234792005, "timestamp": "2025-12-03T08:58:45.666811+00:00", "meta": {"OBJECT_NAME": "GALAXY 19 (G-19)", "OBJECT_ID": "2008-045A", "EPOCH": "2025-12-03T04:00:38.641824", "MEAN_MOTION": 1.00270857, "ECCENTRICITY": 0.0003438, "INCLINATION": 0.0173, "RA_OF_ASC_NODE": 17.5292, "ARG_OF_PERICENTER": 246.195, "MEAN_ANOMALY": 131.7053, "EPHEMERIS_TYPE": 0, "CLASSIFICATION_TYPE": "U", "NORAD_CAT_ID": 33376, "ELEMENT_SET_NO": 999, "REV_AT_EPOCH": 6293, "BSTAR": 0, "MEAN_MOTION_DOT": -1.2e-06, "MEAN_MOTION_DDOT": 0}, "tle": {"line1": "1 33376U 08045A   25337.16711391 -.00000120  00000+0  00000+0 0  9990", "line2": "2 33376   0.0173  17.5292 0003438 246.1950 131.7053  1.00270857 62936"}}, "geometry": {"type": "Point", "coordinates": [110.11867227344854, 0.02543222571447696]}}, {"type": "Feature", "properties": {"norad_id": 35493, "name": "FM-5", "group": "intelsat", "lat": -0.0044532132160561766, "lon": 120.9842017874166, "alt_km": 35782.77406569255, "timestamp": "2025-12-03T08:58:45.666823+00:00", "meta": {"OBJECT_NAME": "FM-5", "OBJECT_ID": "2009-034A", "EPOCH": "2025-12-03T03:04:21.874080", "MEAN_MOTION": 1.00270104, "ECCENTRICITY": 0.0001197, "INCLINATION": 0.0234, "RA_OF_ASC_NODE": 283.6233, "ARG_OF_PERICENTER": 238.1283, "MEAN_ANOMALY": 230.4272, "EPHEMERIS_TYPE": 0, "CLASSIFICATION_TYPE": "U", "NORAD_CAT_ID": 35493, "ELEMENT_SET_NO": 999, "REV_AT_EPOCH": 4467, "BSTAR": 0, "MEAN_MOTION_DOT": -1.81e-06, "MEAN_MOTION_DDOT": 0}, "tle": {"line1": "1 35493U 09034A   25337.12803095 -.00000181  00000+0  00000+0 0  9997", "line2": "2 35493   0.0234 283.6233 0001197 238.1283 230.4272  1.00270104 44673"}}, "geometry": {"type": "Point", "coordinates": [120.9842017874166, -0.0044532132160561766]}}, {"type": "Feature", "properties": {"norad_id": 36097, "name": "INTELSAT 14 (IS-14)", "group": "intelsat", "lat": -0.02335116370465187, "lon": 162.10407467481093, "alt_km": 35786.51593731382, "timestamp": "2025-12-03T08:58:45.666836+00:00", "meta": {"OBJECT_NAME": "INTELSAT 14 (IS-14)", "OBJECT_ID": "2009-064A", "EPOCH": "2025-12-03T03:16:05.749824", "MEAN_MOTION": 1.00271475, "ECCENTRICITY": 0.0002641, "INCLINATION": 0.0165, "RA_OF_ASC_NODE": 302.3379, "ARG_OF_PERICENTER": 311.4506, "MEAN_ANOMALY": 182.4713, "EPHEMERIS_TYPE": 0, "CLASSIFICATION_TYPE": "U", "NORAD_CAT_ID": 36097, "ELEMENT_SET_NO": 999, "REV_AT_EPOCH": 5863, "BSTAR": 0, "MEAN_MOTION_DOT": -2.54e-06, "MEAN_MOTION_DDOT": 0}, "tle": {"line1": "1 36097U 09064A   25337.13617766 -.00000254  00000+0  00000+0 0  9991", "line2": "2 36097   0.0165 302.3379 0002641 311.4506 182.4713  1.00271475 58634"}}, "geometry": {"type": "Point", "coordinates": [162.10407467481093, -0.02335116370465187]}}, {"type": "Feature", "properties": {"norad_id": 36106, "name": "INTELSAT 15 (IS-15)", "group": "intelsat", "lat": -0.018273760801896747, "lon": -67.69062249866313, "alt_km": 35778.56603273988, "timestamp": "2025-12-03T08:58:45.666847+00:00", "meta": {"OBJECT_NAME": "INTELSAT 15 (IS-15)", "OBJECT_ID": "2009-067A", "EPOCH": "2025-12-03T00:27:42.533856", "MEAN_MOTION": 1.00270428, "ECCENTRICITY": 0.0002422, "INCLINATION": 0.0135, "RA_OF_ASC_NODE": 323.8729, "ARG_OF_PERICENTER": 288.97, "MEAN_ANOMALY": 271.3635, "EPHEMERIS_TYPE": 0, "CLASSIFICATION_TYPE": "U", "NORAD_CAT_ID": 36106, "ELEMENT_SET_NO": 999, "REV_AT_EPOCH": 3926, "BSTAR": 0, "MEAN_MOTION_DOT": -1.66e-06, "MEAN_MOTION_DDOT": 0}, "tle": {"line1": "1 36106U 09067A   25337.01924229 -.00000166  00000+0  00000+0 0  9999", "line2": "2 36106   0.0135 323.8729 0002422 288.9700 271.3635  1.00270428 39266"}}, "geometry": {"type": "Point", "coordinates": [-67.69062249866313, -0.018273760801896747]}}, {"type": "Feature", "properties": {"norad_id": 36131, "name": "DIRECTV 12", "group": "intelsat", "lat": -0.0011472766566355066, "lon": 104.41348100723839, "alt_km": 35786.30531134214, "timestamp": "2025-12-03T08:58:45.666859+00:00", "meta": {"OBJECT_NAME": "DIRECTV 12", "OBJECT_ID": "2009-075A", "EPOCH": "2025-12-02T23:34:10.166304", "MEAN_MOTION": 1.00270477, "ECCENTRICITY": 8.8e-06, "INCLINATION": 0.0129, "RA_OF_ASC_NODE": 85.1982, "ARG_OF_PERICENTER": 85.0953, "MEAN_ANOMALY": 152.6141, "EPHEMERIS_TYPE": 0, "CLASSIFICATION_TYPE": "U", "NORAD_CAT_ID": 36131, "ELEMENT_SET_NO": 999, "REV_AT_EPOCH": 4458, "BSTAR": 0, "MEAN_MOTION_DOT": -8.4e-07, "MEAN_MOTION_DDOT": 0}, "tle": {"line1": "1 36131U 09075A   25336.98206211 -.00000084  00000+0  00000+0 0  9994", "line2": "2 36131   0.0129  85.1982 0000088  85.0953 152.6141  1.00270477 44586"}}, "geometry": {"type": "Point", "coordinates": [104.41348100723839, -0.0011472766566355066]}}, {"type": "Feature", "properties": {"norad_id": 36397, "name": "INTELSAT 16 (IS-16)", "group": "intelsat", "lat": 0.0012426703363563633, "lon": 130.90729485978963, "alt_km": 35792.187175125684, "timestamp": "2025-12-03T08:58:45.666871+00:00", "meta": {"OBJECT_NAME": "INTELSAT 16 (IS-16)", "OBJECT_ID": "2010-006A", "EPOCH": "2025-12-03T03:07:14.100384", "MEAN_MOTION": 1.00270065, "ECCENTRICITY": 0.0002368, "INCLINATION": 0.0124, "RA_OF_ASC_NODE": 310.7865, "ARG_OF_PERICENTER": 304.1035, "MEAN_ANOMALY": 147.9452, "EPHEMERIS_TYPE": 0, "CLASSIFICATION_TYPE": "U", "NORAD_CAT_ID": 36397, "ELEMENT_SET_NO": 999, "REV_AT_EPOCH": 5768, "BSTAR": 0, "MEAN_MOTION_DOT": -2.25e-06, "MEAN_MOTION_DDOT": 0}, "tle": {"line1": "1 36397U 10006A   25337.13002431 -.00000225  00000+0  00000+0 0  9997", "line2": "2 36397   0.0124 310.7865 0002368 304.1035 147.9452  1.00270065 57681"}}, "geometry": {"type": "Point", "coordinates": [130.90729485978963, 0.0012426703363563633]}}, {"type": "Feature", "properties": {"norad_id": 37185, "name": "XM-5", "group": "intelsat", "lat": 0.015152845540549058, "lon": 91.9305692386529, "alt_km": 35783.1330989334, "timestamp": "2025-12-03T08:58:45.666883+00:00", "meta": {"OBJECT_NAME": "XM-5", "OBJECT_ID": "2010-053A", "EPOCH": "2025-12-02T10:37:38.767584", "MEAN_MOTION": 1.00270481, "ECCENTRICITY": 0.0001582, "INCLINATION": 0.0649, "RA_OF_ASC_NODE": 272.7549, "ARG_OF_PERICENTER": 239.5567, "MEAN_ANOMALY": 323.4678, "EPHEMERIS_TYPE": 0, "CLASSIFICATION_TYPE": "U", "NORAD_CAT_ID": 37185, "ELEMENT_SET_NO": 999, "REV_AT_EPOCH": 5551, "BSTAR": 0, "MEAN_MOTION_DOT": -2e-08, "MEAN_MOTION_DDOT": 0}, "tle": {"line1": "1 37185U 10053A   25336.44280981 -.00000002  00000+0  00000+0 0  9999", "line2": "2 37185   0.0649 272.7549 0001582 239.5567 323.4678  1.00270481 55516"}}, "geometry": {"type": "Point", "coordinates": [91.9305692386529, 0.015152845540549058]}}, {"type": "Feature", "properties": {"norad_id": 37238, "name": "INTELSAT 17 (IS-17)", "group": "intelsat", "lat": -0.013924057097658536, "lon": -86.85852555654338, "alt_km": 35774.58205101308, "timestamp": "2025-12-03T08:58:45.666895+00:00", "meta": {"OBJECT_NAME": "INTELSAT 17 (IS-17)", "OBJECT_ID": "2010-065B", "EPOCH": "2025-12-03T00:22:20.548704", "MEAN_MOTION": 1.00272391, "ECCENTRICITY": 0.0002694, "INCLINATION": 0.0168, "RA_OF_ASC_NODE": 281.0388, "ARG_OF_PERICENTER": 345.1332, "MEAN_ANOMALY": 237.5325, "EPHEMERIS_TYPE": 0, "CLASSIFICATION_TYPE": "U", "NORAD_CAT_ID": 37238, "ELEMENT_SET_NO": 999, "REV_AT_EPOCH": 5128, "BSTAR": 0, "MEAN_MOTION_DOT": 1.8e-07, "MEAN_MOTION_DDOT": 0}, "tle": {"line1": "1 37238U 10065B   25337.01551561  .00000018  00000+0  00000+0 0  9996", "line2": "2 37238   0.0168 281.0388 0002694 345.1332 237.5325  1.00272391 51280"}}, "geometry": {"type": "Point", "coordinates": [-86.85852555654338, -0.013924057097658536]}}, {"type": "Feature", "properties": {"norad_id": 37392, "name": "INTELSAT 28 (IS-28)", "group": "intelsat", "lat": 1.2827232186575845, "lon": 175.3805118244657, "alt_km": 35783.55030580042, "timestamp": "2025-12-03T08:58:45.666907+00:00", "meta": {"OBJECT_NAME": "INTELSAT 28 (IS-28)", "OBJECT_ID": "2011-016A", "EPOCH": "2025-12-03T02:21:03.347424", "MEAN_MOTION": 1.00271336, "ECCENTRICITY": 0.0004073, "INCLINATION": 1.2976, "RA_OF_ASC_NODE": 85.1714, "ARG_OF_PERICENTER": 171.9362, "MEAN_ANOMALY": 178.6446, "EPHEMERIS_TYPE": 0, "CLASSIFICATION_TYPE": "U", "NORAD_CAT_ID": 37392, "ELEMENT_SET_NO": 999, "REV_AT_EPOCH": 5131, "BSTAR": 0, "MEAN_MOTION_DOT": -2.06e-06, "MEAN_MOTION_DDOT": 0}, "tle": {"line1": "1 37392U 11016A   25337.09795541 -.00000206  00000+0  00000+0 0  9990", "line2": "2 37392   1.2976  85.1714 0004073 171.9362 178.6446  1.00271336 51319"}}, "geometry": {"type": "Point", "coordinates": [175.3805118244657, 1.2827232186575845]}}]}